NORAD_CAT_ID,OBJECT_NAME,OBJECT_TYPE,EPOCH,MEAN_MOTION,ECCENTRICITY,INCLINATION,RA_OF_ASC_NODE,ARG_OF_PERICENTER,MEAN_ANOMALY,BSTAR,MEAN_MOTION_DOT,MEAN_MOTION_DDOT,TLE_LINE0,TLE_LINE1,TLE_LINE2,SEMIMAJOR_AXIS,PERIOD,APOGEE,PERIGEE,DECAYED
51734.0,STARLINK-3450,PAYLOAD,2022-08-21 06:00:00,15.08810587,0.0001526,53.2179,19.0592,56.8292,207.2622,0.0026984,0.00042884,0.0,0 STARLINK-3450,1 51734U 22016W   22233.25001157  .00042884  00000-0  26984-2 0  9991,2 51734  53.2179  19.0592 0001526  56.8292 207.2622 15.08810587 28959,6917.97,95.439,540.891,538.78,0.0
51734.0,STARLINK-3450,PAYLOAD,2022-08-21 14:00:01,15.08855317,0.0001616,53.218,17.564,55.2942,220.3744,-0.0018892,-0.00030242,0.0,0 STARLINK-3450,1 51734U 22016W   22233.58334491 -.00030242  00000-0 -18892-2 0  9993,2 51734  53.2180  17.5640 0001616  55.2942 220.3744 15.08855317  1304,6917.834,95.437,540.816,538.581,0.0
51734.0,STARLINK-3450,PAYLOAD,2022-08-21 22:00:00,15.08833792,0.0001645,53.2179,16.0682,47.8164,239.4568,-0.00048329,-7.97e-05,0.0,0 STARLINK-3450,1 51734U 22016W   22233.91667824 -.00007970  00000-0 -48329-3 0  9990,2 51734  53.2179  16.0682 0001645  47.8164 239.4568 15.08833792 29057,6917.899,95.438,540.9019999999998,538.626,0.0
51734.0,STARLINK-3450,PAYLOAD,2022-08-22 00:00:00,15.08842992,0.0001608,53.2179,15.6935,48.2316,331.9358,-0.0020685,-0.0003306,0.0,0 STARLINK-3450,1 51734U 22016W   22234.00001157 -.00033060  00000-0 -20685-2 0  9995,2 51734  53.2179  15.6935 0001608  48.2316 331.9358 15.08842992  1301,6917.871,95.437,540.849,538.624,0.0
51734.0,STARLINK-3450,PAYLOAD,2022-08-22 12:00:00,15.0884282,0.0001561,53.2185,13.4485,54.5446,162.9882,-0.0011085,-0.00017888,0.0,0 STARLINK-3450,1 51734U 22016W   22234.50001157 -.00017888  00000-0 -11085-2 0  9994,2 51734  53.2185  13.4485 0001561  54.5446 162.9882 15.08842820  1300,6917.871999999999,95.437,540.817,538.6569999999998,0.0
51734.0,STARLINK-3450,PAYLOAD,2022-08-23 00:00:00,15.08854383,0.0001651,53.2184,11.2043,48.2109,6.7029,-0.0015673,-0.00025155,0.0,0 STARLINK-3450,1 51734U 22016W   22235.00001157 -.00025155  00000-0 -15673-2 0  9993,2 51734  53.2184  11.2043 0001651  48.2109   6.7029 15.08854383  1306,6917.8359999999975,95.437,540.844,538.559,0.0
51734.0,STARLINK-3450,PAYLOAD,2022-08-23 06:00:00,15.08816874,0.0001524,53.2187,10.0809,54.1984,279.4237,0.0032189999999999,0.00051283,0.0,0 STARLINK-3450,1 51734U 22016W   22235.25001157  .00051283  00000-0  32190-2 0  9992,2 51734  53.2187  10.0809 0001524  54.1984 279.4237 15.08816874 29259,6917.951,95.439,540.87,538.762,0.0
51734.0,STARLINK-3450,PAYLOAD,2022-08-23 14:00:01,15.08857687,0.0001659,53.2189,8.5858,51.2657,293.9425,-0.0014414,-0.00023166,0.0,0 STARLINK-3450,1 51734U 22016W   22235.58334491 -.00023166  00000-0 -14414-2 0  9998,2 51734  53.2189   8.5858 0001659  51.2657 293.9425 15.08857687  1304,6917.826,95.436,540.839,538.544,0.0
51734.0,STARLINK-3450,PAYLOAD,2022-08-23 22:00:01,15.08860864,0.0001715,53.2187,7.0897,47.4217,309.4514,-0.0012584,-0.00020271,0.0,0 STARLINK-3450,1 51734U 22016W   22235.91668981 -.00020271  00000-0 -12584-2 0  9999,2 51734  53.2187   7.0897 0001715  47.4217 309.4514 15.08860864 29359,6917.816999999999,95.436,540.868,538.495,0.0
51734.0,STARLINK-3450,PAYLOAD,2022-08-24 14:00:01,15.08840316,0.0001766,53.2192,4.0969,53.7751,326.2257,-0.0014589,-0.00023432,0.0,0 STARLINK-3450,1 51734U 22016W   22236.58334491 -.00023432  00000-0 -14589-2 0  9998,2 51734  53.2192   4.0969 0001766  53.7751 326.2257 15.08840316  1307,6917.879,95.438,540.966,538.523,0.0
51734.0,STARLINK-3450,PAYLOAD,2022-08-24 22:00:00,15.08840753,0.0001774999999999,53.219,2.6007,50.2437,341.3387,-0.00049694,-8.188e-05,0.0,0 STARLINK-3450,1 51734U 22016W   22236.91667824 -.00008188  00000-0 -49694-3 0  9991,2 51734  53.2190   2.6007 0001775  50.2437 341.3387 15.08840753  1302,6917.878000000002,95.438,540.971,538.515,0.0
51734.0,STARLINK-3450,PAYLOAD,2022-08-25 06:00:02,15.08812312,0.0001603,53.2192,1.1029,58.2568,344.985,0.0030019,0.00047775,0.0,0 STARLINK-3450,1 51734U 22016W   22237.25002315  .00047775  00000-0  30019-2 0  9990,2 51734  53.2192   1.1029 0001603  58.2568 344.9850 15.08812312 29567,6917.965,95.439,540.939,538.721,0.0
51734.0,STARLINK-3450,PAYLOAD,2022-08-25 14:00:01,15.08849877,0.0001745,53.2192,359.6083,54.2205,0.5414,-0.0014602999999999,-0.0002346,0.0,0 STARLINK-3450,1 51734U 22016W   22237.58334491 -.00023460  00000-0 -14603-2 0  9997,2 51734  53.2192 359.6083 0001745  54.2205   0.5414 15.08849877  1308,6917.85,95.437,540.922,538.508,0.0
51734.0,STARLINK-3450,PAYLOAD,2022-08-25 22:00:00,15.08853254,0.0001743,53.2189,358.1119,51.4284,14.9271,-0.00088261,-0.00014313,0.0,0 STARLINK-3450,1 51734U 22016W   22237.91667824 -.00014313  00000-0 -88261-3 0  9992,2 51734  53.2189 358.1119 0001743  51.4284  14.9271 15.08853254  1306,6917.84,95.437,540.911,538.499,0.0
51734.0,STARLINK-3450,PAYLOAD,2022-08-26 14:00:01,15.08857606,0.0001736,53.219,355.1196,54.9358,34.6887,-0.0012719,-0.00020483,0.0,0 STARLINK-3450,1 51734U 22016W   22238.58335648 -.00020483  00000-0 -12719-2 0  9991,2 51734  53.2190 355.1196 0001736  54.9358  34.6887 15.08857606  1309,6917.8269999999975,95.436,540.893,538.491,0.0
51734.0,STARLINK-3450,PAYLOAD,2022-08-26 22:00:00,15.08865381,0.0001739,53.2186,353.6231,52.7456,48.4204,-0.0011351,-0.0001831999999999,0.0,0 STARLINK-3450,1 51734U 22016W   22238.91667824 -.00018320  00000-0 -11351-2 0  9990,2 51734  53.2186 353.6231 0001739  52.7456  48.4204 15.08865381 29816,6917.803000000001,95.436,540.871,538.465,0.0
51734.0,STARLINK-3450,PAYLOAD,2022-08-27 14:00:01,15.08838905,0.0001854,53.2186,350.631,57.129,67.2642,-0.0008941,-0.00014489,0.0,0 STARLINK-3450,1 51734U 22016W   22239.58334491 -.00014489  00000-0 -89410-3 0  9999,2 51734  53.2186 350.6310 0001854  57.1290  67.2642 15.08838905  1305,6917.884,95.438,541.031,538.466,0.0
51734.0,STARLINK-3450,PAYLOAD,2022-08-27 22:00:00,15.0880044,0.0001601,53.2173,349.1309,59.9362,76.038,0.0036556999999999,0.00058311,0.0,0 STARLINK-3450,1 51734U 22016W   22239.91667824  .00058311  00000-0  36557-2 0  9998,2 51734  53.2173 349.1309 0001601  59.9362  76.0380 15.08800440  1302,6918.001,95.44,540.974,538.759,0.0
51734.0,STARLINK-3450,PAYLOAD,2022-08-28 06:00:00,15.08823566,0.000158,53.2185,347.6368,58.0271,89.5519,0.0023171999999999,0.00036766,0.0,0 STARLINK-3450,1 51734U 22016W   22240.25001157  .00036766  00000-0  23172-2 0  9997,2 51734  53.2185 347.6368 0001580  58.0271  89.5519 15.08823566 30015,6917.931,95.439,540.889,538.703,0.0
51734.0,STARLINK-3450,PAYLOAD,2022-08-28 14:00:01,15.0884285,0.0001749,53.2184,346.1424,52.4002,106.7702,-0.00033244,-5.575e-05,0.0,0 STARLINK-3450,1 51734U 22016W   22240.58334491 -.00005575  00000-0 -33244-3 0  9991,2 51734  53.2184 346.1424 0001749  52.4002 106.7702 15.08842850  1301,6917.871999999999,95.437,540.947,538.5269999999998,0.0
51734.0,STARLINK-3450,PAYLOAD,2022-08-28 22:00:00,15.08870871,0.0001757,53.2183,344.6455,51.7638,118.9954,-0.0045262,-0.00071668,0.0,0 STARLINK-3450,1 51734U 22016W   22240.91667824 -.00071668  00000-0 -45262-2 0  9995,2 51734  53.2183 344.6455 0001757  51.7638 118.9954 15.08870871  1301,6917.786,95.436,540.866,538.436,0.0
51734.0,STARLINK-3450,PAYLOAD,2022-08-29 08:00:01,15.08894339,0.0001559,53.2179,342.7714,55.3449,219.9099,-0.010221,-0.00159611,0.0,0 STARLINK-3450,1 51734U 22016W   22241.33334491 -.00159611  00000-0 -10221-1 0  9994,2 51734  53.2179 342.7714 0001559  55.3449 219.9099 15.08894339 30177,6917.714,95.434,540.658,538.501,0.0
51734.0,STARLINK-3450,PAYLOAD,2022-08-29 14:00:01,15.08733872,0.0001682,53.2178,341.6498,47.1067,146.8718,0.0091266,0.00147592,0.0,0 STARLINK-3450,1 51734U 22016W   22241.58334491  .00147592  00000-0  91266-2 0  9993,2 51734  53.2178 341.6498 0001682  47.1067 146.8718 15.08733872  1308,6918.205,95.444,541.2330000000002,538.906,0.0
51734.0,STARLINK-3450,PAYLOAD,2022-08-29 16:00:00,15.08843103,0.000183,53.2187,341.2797,50.0599,236.8109,-9.3672e-06,-4.37e-06,0.0,0 STARLINK-3450,1 51734U 22016W   22241.66667824 -.00000437  00000-0 -93672-5 0  9995,2 51734  53.2187 341.2797 0001830  50.0599 236.8109 15.08843103 30220,6917.871,95.437,541.002,538.47,0.0
51734.0,STARLINK-3450,PAYLOAD,2022-08-29 22:00:00,15.08854711,0.0001713,53.2185,340.1565,48.9359,156.6329,-0.0027831999999999,-0.00044329,0.0,0 STARLINK-3450,1 51734U 22016W   22241.91667824 -.00044329  00000-0 -27832-2 0  9993,2 51734  53.2185 340.1565 0001713  48.9359 156.6329 15.08854711  1306,6917.835,95.437,540.885,538.515,0.0
51734.0,STARLINK-3450,PAYLOAD,2022-08-30 14:00:01,15.08843897,0.0001793,53.2187,337.1647,47.9991,180.7557,-0.00073206,-0.00011921,0.0,0 STARLINK-3450,1 51734U 22016W   22242.58334491 -.00011921  00000-0 -73206-3 0  9997,2 51734  53.2187 337.1647 0001793  47.9991 180.7557 15.08843897  1308,6917.868,95.437,540.974,538.493,0.0
51734.0,STARLINK-3450,PAYLOAD,2022-08-30 22:00:00,15.0884682,0.0001663,53.2187,335.6675,46.1302,194.2161,-0.0029227,-0.00046512,0.0,0 STARLINK-3450,1 51734U 22016W   22242.91667824 -.00046512  00000-0 -29227-2 0  9990,2 51734  53.2187 335.6675 0001663  46.1302 194.2161 15.08846820  1305,6917.86,95.437,540.875,538.5740000000002,0.0
51734.0,STARLINK-3450,PAYLOAD,2022-08-31 14:00:01,15.08826102,0.0001768,53.2188,332.6758,45.7913,217.7256,0.00089696,0.00014011,0.0,0 STARLINK-3450,1 51734U 22016W   22243.58334491  .00014011  00000-0  89696-3 0  9999,2 51734  53.2188 332.6758 0001768  45.7913 217.7256 15.08826102 30516,6917.9230000000025,95.438,541.011,538.565,0.0
51734.0,STARLINK-3450,PAYLOAD,2022-08-31 22:00:00,15.08864056,0.0001696,53.2187,331.1785,47.0007,228.0963,-0.0047464,-0.0007509,0.0,0 STARLINK-3450,1 51734U 22016W   22243.91667824 -.00075090  00000-0 -47464-2 0  9997,2 51734  53.2187 331.1785 0001696  47.0007 228.0963 15.08864056  1303,6917.807,95.436,540.845,538.499,0.0
